{"spkid": "50596868", "covariance": {"labels": ["e", "q", "tp", "node", "peri", "i"], "elements": [{"label": "e", "sigma": 4.41890475918834e-08, "name": "e", "units": null, "title": "eccentricity", "value": ".6385210151554892"}, {"name": "q", "sigma": 8.85376052537693e-08, "value": ".7158214598091944", "title": "perihelion distance", "units": "au", "label": "q"}, {"label": "tp", "units": "TDB", "title": "time of perihelion passage", "value": "2457942.828290462682", "name": "tp", "sigma": 1.75787430031959e-05}, {"label": "node", "units": "deg", "value": "302.4019197069459", "title": "longitude of the ascending node", "sigma": 0.000202924938493964, "name": "om"}, {"label": "peri", "value": "99.40102710252214", "title": "argument of perihelion", "units": "deg", "sigma": 0.000203826298653635, "name": "w"}, {"label": "i", "name": "i", "sigma": 1.77627062720253e-05, "units": "deg", "title": "inclination", "value": "1.338427863431907"}], "data": [["1.95267192707774E-15", "-3.911259745234735E-15", "-4.597392895331431E-13", "1.010556054009705E-13", "-7.285740236698235E-13", "7.20563029613152E-15"], ["-3.911259745234735E-15", "7.838907544072271E-15", "9.46463641524449E-13", "-1.961743698718538E-13", "1.473005321479659E-12", "-1.438552097445388E-14"], ["-4.597392895331431E-13", "9.46463641524449E-13", "3.0901220557241E-10", "-1.052051822068215E-12", "3.124807786429927E-10", "-4.366791855777085E-12"], ["1.010556054009705E-13", "-1.961743698718538E-13", "-1.052051822068215E-12", "4.117853066277903E-8", "-4.118151036489543E-8", "2.679892623592075E-9"], ["-7.285740236698235E-13", "1.473005321479659E-12", "3.124807786429927E-10", "-4.118151036489543E-8", "4.154516002284073E-8", "-2.683887493850329E-9"], ["7.20563029613152E-15", "-1.438552097445388E-14", "-4.366791855777085E-12", "2.679892623592075E-9", "-2.683887493850329E-9", "3.155137341062479E-10"]], "epoch": "2457998.5"}, "elements": [{"units": null, "value": ".6370491602238678", "title": "eccentricity", "sigma": "4.423E-8", "name": "e", "label": "e"}, {"label": "a", "units": "au", "title": "semi-major axis", "value": "1.980569465467923", "name": "a", "sigma": "5.2572E-9"}, {"name": "q", "sigma": "8.8375E-8", "units": "au", "title": "perihelion distance", "value": ".7188493507265479", "label": "q"}, {"label": "i", "units": "deg", "value": "1.340009541675944", "title": "inclination; angle with respect to x-y ecliptic plane", "name": "i", "sigma": "1.7754E-5"}, {"units": "deg", "title": "longitude of the ascending node", "value": "301.8261389931969", "name": "om", "sigma": ".00020462", "label": "node"}, {"label": "peri", "units": "deg", "value": "100.043182794917", "title": "argument of perihelion", "sigma": ".00020556", "name": "w"}, {"units": "deg", "title": "mean anomaly", "value": "71.13802977694074", "sigma": "1.1554E-5", "name": "ma", "label": "M"}, {"label": "tp", "title": "time of perihelion passage", "value": "2460999.320892175274", "units": "TDB", "name": "tp", "sigma": "3.1919E-5"}, {"name": "per", "sigma": "4.0536E-6", "value": "1018.0838440985", "title": "sidereal orbital period", "units": "d", "label": "period"}, {"sigma": "1.4079E-9", "name": "n", "title": "mean motion", "value": ".353605454095753", "units": "deg/d", "label": "n"}, {"label": "Q", "sigma": "8.6062E-9", "name": "ad", "units": "au", "title": "aphelion distance", "value": "3.242289580209298"}], "epoch": "2461200.5"}